[Satellite]
VERSION=1.1
NAME=STARLINK-5241
NICKNAME=STARLINK-5241
TLE1=1 54204U 22141AZ  22321.58334491  .00062394  00000+0  44619-3 0  9992
TLE2=2 54204  53.2171  42.2160 0002850  24.6852 116.9642 15.73170268  1306
STATUS=0
